#cP2019  7 11  0  0  0.00000000      96 TRACK IGb14 FIT GRGS
## 2061 345600.00000000   900.00000000 58675 0.0000000000000
+   79   E01E02E03E04E05E07E08E09E11E12E13E14E15E18E19E21E24
+        E25E26E27E30E31E33E36R01R02R03R04R05R07R08R09R10R11
+        R12R13R14R15R16R17R18R19R20R21R22R23R24R26G01G02G03
+        G05G06G07G08G09G10G11G12G13G14G15G16G17G19G20G21G22
+        G23G24G25G26G27G28G29G30G31G32G18  0  0  0  0  0  0
++         6  6  5  5  5  5  5  5  5  5  5  5  6  5  5  6  5
++         6  6  6  6  6  6  5  6  6  6  6  6  6  6  7  7  6
++         6  6  7  6  6  6  6  6  6  6  6  6  7  6  5  5  5
++         5  5  4  5  5  5  5  6  5  5  5  5  5  5  5  5  5
++         5  6  6  7  5  6  6  5  5  5  5  0  0  0  0  0  0
%c M  cc GPS ccc cccc cccc cccc cccc ccccc ccccc ccccc ccccc
%c cc cc ccc ccc cccc cccc cccc cccc ccccc ccccc ccccc ccccc
%f  0.0000000  0.000000000  0.00000000000  0.000000000000000
%f  0.0000000  0.000000000  0.00000000000  0.000000000000000
%i    0    0    0    0      0      0      0      0         0
%i    0    0    0    0      0      0      0      0         0
/* CNES/CLS/GRGS - TOULOUSE,FRANCE - Contact : igs-ac@cls.fr
/* PCV: OL/AL:FES2012  NONE     NN ORB:CoN CLK:CoN          
/* CCCCCCCCCCCCCCCCCCCCCCCCCCCCCCCCCCCCCCCCCCCCCCCCCCCCCCCCC
/* CCCCCCCCCCCCCCCCCCCCCCCCCCCCCCCCCCCCCCCCCCCCCCCCCCCCCCCCC
*  2019  7 11 22 30  0.00000000
PE01  -2402.344617  16582.398134  24403.151857   -645.067291
PE02   2343.322825 -16601.713099 -24393.606093     68.861351
PE03   3389.206555 -28104.360968   8629.644764   -187.198430
PE04   9547.508753  26281.196329   9728.950804   -321.347239
PE05  14434.930323 -13466.198350  22063.212754   -467.260782
PE07 -16974.661359  -8957.260506 -22517.425512   -224.583024
PE08  -9744.763088 -26145.403562  -9848.186565   6325.516289
PE09  16927.805433   8820.670111  22640.311416   6381.731549
PE11  22513.442099   -665.787598 -19224.900812   5656.171780
PE12   6614.948654  15303.301759 -24459.279116   6302.853171
PE13 -22390.525032    699.411430  19345.496785    389.844493
PE14  -8115.641318  25844.560470    211.858162   -639.215207
PE15  -6978.786295 -14993.403211  24551.339484    903.562084
PE18  17779.603599 -20622.277597 -12787.567002   -734.928795
PE19  -4565.605597  27334.451831 -10389.267273     -5.214107
PE21 -21379.728491   4799.969967  19894.247284   -543.663976
PE24  27665.448829   9757.002292  -3923.182062   5982.091242
PE25  21444.782072  -4735.443482 -19845.488711   1745.559611
PE26 -24848.993935  15858.748123   2702.643935   4351.401369
PE27 -27691.833716  -9788.868972   3656.157881    431.023196
PE30 -17773.907994 -18693.919701 -14527.122370   4718.498642
PE31  17738.089624  18603.406693  14696.766873   -466.387546
PE33 -12557.739550  21941.324043 -15390.450130   -469.832702
PE36  24728.772560 -16033.744849  -2781.446135    688.697897
PR01  10312.877640  22887.931336   4581.702067     46.589302
PR02  12784.865074   7397.821179  20824.699991    377.860722
PR03   7264.675988 -11178.821242  21799.984307     -1.866705
PR04  -2883.683512 -23431.883168   9699.822535    313.448664
PR05 -10759.433493 -22043.809702  -7018.975528     31.726491
PR07  -7004.183326  11612.373258 -21557.101491    -23.268513
PR08   2464.074148  23183.905177 -10283.996142     16.796119
PR09 -24940.355032  -3212.639884   4065.584290     79.634155
PR10 -18128.902988   4233.893735  17374.806861     54.194928
PR11    226.991965  11311.713702  22880.839070    -72.374888
PR12  17109.174070  10970.764377  15432.964320     42.778723
PR13  25120.614366   4048.922670  -1894.813599    -25.807222
PR14  18075.531939  -4659.469318 -17381.396101     40.852314
PR15    774.781020 -10942.513884 -23006.043636    103.034988
PR16 -17488.777106 -10775.770718 -15217.739990      7.578791
PR17  18456.527996 -16683.804897  -5538.336157    242.886687
PR18  11128.097209 -19977.322908  11368.324535     -0.084927
PR19  -1839.926894 -12513.199985  22144.825485    -41.512395
PR20 -15509.139712   3375.624152  19953.107188   -384.013316
PR21 -18360.577433  17048.835310   4852.722867    -59.242235
PR22  -9199.875687  19310.266252 -13803.360899    -28.001653
PR23   6525.904921   8369.451692 -23208.982819    240.066744
PR24  16334.940200  -5284.545378 -18902.380135   -182.507058
PR26 -13987.159563   1110.889441  21315.073548    -17.054841
PG01   1477.634728  15055.506344 -22000.272148    -64.719531
PG02  18874.554170 -15320.853154  11130.976259   -257.979676
PG03  10068.056929  21349.407907 -12313.566883    181.618847
PG05   9084.817075 -12475.000170  21482.782105      0.091772
PG06  25770.868729  -6029.514069  -2386.653863    152.347332
PG07  16951.090208   9045.890097  18807.287907    -62.444065
PG08  -4780.541805  25967.753753  -1490.892223   -150.842832
PG09  10170.136959  15745.149385  18774.942948    372.935060
PG10 -21772.246313  -8127.740551 -12979.978073    -12.951289
PG11  -1287.442934  20065.960528 -18009.361454   -563.501680
PG12  -6623.537617 -21467.452878 -14511.844464    224.787031
PG13  12960.351204 -22250.217117   6286.714140    -55.050670
PG14 -16377.628811  10788.438207 -17499.254056    -71.972342
PG15   1890.411497 -26195.863392  -2352.361624   -301.502126
PG16  -9932.685313  10822.500753  21919.897722    -55.423549
PG17  15327.142586  -2168.470294 -21164.342996     87.038584
PG19  16587.160512  -8947.247930 -19043.397138   -295.364218
PG20 -22807.480406 -13255.767961  -3873.558677    525.900848
PG21 -20566.588733  -5233.232944  16662.696878   -156.486709
PG22   3849.800567  19735.221866 -17168.648315   -729.755714
PG23   2056.530045  24461.524034   9953.747551   -177.681896
PG24   1235.084677 -16604.582561 -20788.702066    -68.697209
PG25 -17423.699447 -19951.300446  -3541.861186   -772.678082
PG26 -17632.920987   3019.275716  19666.815046    248.917763
PG27 -12081.083046  21079.397184  10251.467388   -182.283326
PG28  20451.146724  10382.657600 -12703.260296    766.571656
PG29  -6080.590664 -19163.697507  17311.905072    153.856060
PG30  24243.857626   2091.340135  10905.869807   -141.266999
PG31 -26001.390210   6489.434540   -596.485192     24.958396
PG32 -15888.406406   2967.652448 -20990.578247     -6.785295
PG18  -7968.984441  17143.955206 -19107.660541     69.112758
EOF
